{
"type": "FeatureCollection",
"name": "study_area",
"crs": { "type": "name", "properties": { "name": "urn:ogc:def:crs:OGC:1.3:CRS84" } },
"features": [
{ "type": "Feature", "properties": { "MINX": 4505071.5377495391, "MINY": 1672243.8878421271, "MAXX": 4544748.8982290355, "MAXY": 1697278.4129065713, "CNTX": 4524910.2179892873, "CNTY": 1684761.1503743492, "AREA": 989.3476929794648, "PERIM": 129423.77108788118, "HEIGHT": 25034.525064444169, "WIDTH": 39677.360479496419 }, "geometry": { "type": "Polygon", "coordinates": [ [ [ -77.44579734062502, 1.030434440949482 ], [ -77.09002342977422, 1.030915181033961 ], [ -77.090343985958654, 1.256919145653611 ], [ -77.446145565486248, 1.256332985062394 ], [ -77.44579734062502, 1.030434440949482 ] ] ] } }
]
}
